[{"OBJECT_NAME":"ASRTU-1 (AO-123)","OBJECT_ID":"2024-199AY","EPOCH":"2026-03-09T22:36:42.151392","MEAN_MOTION":15.34070057,"ECCENTRICITY":0.0012786,"INCLINATION":97.3152,"RA_OF_ASC_NODE":298.5256,"ARG_OF_PERICENTER":309.3392,"MEAN_ANOMALY":50.6717,"EPHEMERIS_TYPE":0,"CLASSIFICATION_TYPE":"U","NORAD_CAT_ID":61781,"ELEMENT_SET_NO":999,"REV_AT_EPOCH":11870,"BSTAR":0.00032267684,"MEAN_MOTION_DOT":0.00010589,"MEAN_MOTION_DDOT":0},{"OBJECT_NAME":"STARLINK-35658","OBJECT_ID":"2025-237N","EPOCH":"2026-03-09T07:04:07.498272","MEAN_MOTION":15.30191447,"ECCENTRICITY":0.0001187,"INCLINATION":53.1605,"RA_OF_ASC_NODE":41.2013,"ARG_OF_PERICENTER":89.7512,"MEAN_ANOMALY":270.3624,"EPHEMERIS_TYPE":0,"CLASSIFICATION_TYPE":"U","NORAD_CAT_ID":66126,"ELEMENT_SET_NO":999,"REV_AT_EPOCH":2254,"BSTAR":0.00073093955,"MEAN_MOTION_DOT":0.00021346,"MEAN_MOTION_DDOT":0}]
